[{"OBJECT_NAME":"STARLINK-35606","OBJECT_ID":"2025-240AB","EPOCH":"2026-03-09T09:12:20.711520","MEAN_MOTION":15.30206725,"ECCENTRICITY":7.836e-5,"INCLINATION":53.1604,"RA_OF_ASC_NODE":64.0717,"ARG_OF_PERICENTER":99.4375,"MEAN_ANOMALY":260.6714,"EPHEMERIS_TYPE":0,"CLASSIFICATION_TYPE":"U","NORAD_CAT_ID":66171,"ELEMENT_SET_NO":999,"REV_AT_EPOCH":2194,"BSTAR":0.00081215723,"MEAN_MOTION_DOT":0.00023777,"MEAN_MOTION_DDOT":0},{"OBJECT_NAME":"KUIPER-00208","OBJECT_ID":"2026-030M","EPOCH":"2026-03-09T16:08:08.024640","MEAN_MOTION":15.32208734,"ECCENTRICITY":0.00155248,"INCLINATION":51.8846,"RA_OF_ASC_NODE":219.6993,"ARG_OF_PERICENTER":57.3146,"MEAN_ANOMALY":302.9333,"EPHEMERIS_TYPE":0,"CLASSIFICATION_TYPE":"U","NORAD_CAT_ID":67775,"ELEMENT_SET_NO":999,"REV_AT_EPOCH":508,"BSTAR":0.0013882708,"MEAN_MOTION_DOT":0.00043852,"MEAN_MOTION_DDOT":0}]
