STARLINK-35606          
1 66171U 25240AB  26068.38357305  .00023777  00000+0  81216-3 0  9996
2 66171  53.1604  64.0717 0000783  99.4375 260.6714 15.30206725 21945
KUIPER-00208            
1 67775U 26030M   26068.67231509  .00043852  00000+0  13883-2 0  9994
2 67775  51.8846 219.6993 0015525  57.3146 302.9333 15.32208734  5080
